{
  "rows": [
    {"AREAID":"1","PARENTID":"0","POSCODE":"0","AREACODE":"0","AREANAME":"哈尔滨中庆燃气有限责任公司","UNITID":"1","BEGINMONTH":"","CIVILBOOKCODE":"","BUSINESSBOOKCODE":""},
    {"AREAID":"2","PARENTID":"1","POSCODE":"0","AREACODE":"12","AREANAME":"道二管理处","UNITID":"102","BEGINMONTH":"200601","CIVILBOOKCODE":"13677","BUSINESSBOOKCODE":"15996"},
    {"AREAID":"3","PARENTID":"1","POSCODE":"0","AREACODE":"14","AREANAME":"外一管理处","UNITID":"104","BEGINMONTH":"200601","CIVILBOOKCODE":"31147","BUSINESSBOOKCODE":"32991"},
    {"AREAID":"4","PARENTID":"1","POSCODE":"0","AREACODE":"21","AREANAME":"南一管理处","UNITID":"107","BEGINMONTH":"200601","CIVILBOOKCODE":"21794","BUSINESSBOOKCODE":"23989"},
    {"AREAID":"5","PARENTID":"1","POSCODE":"0","AREACODE":"22","AREANAME":"南二管理处","UNITID":"108","BEGINMONTH":"200601","CIVILBOOKCODE":"26413","BUSINESSBOOKCODE":"26981"},
    {"AREAID":"6","PARENTID":"1","POSCODE":"0","AREACODE":"15","AREANAME":"外二管理处","UNITID":"105","BEGINMONTH":"200601","CIVILBOOKCODE":"34340","BUSINESSBOOKCODE":"36998"},
    {"AREAID":"7","PARENTID":"1","POSCODE":"0","AREACODE":"25","AREANAME":"香坊第一管理处","UNITID":"111","BEGINMONTH":"200601","CIVILBOOKCODE":"51086","BUSINESSBOOKCODE":"59998"},
    {"AREAID":"8","PARENTID":"1","POSCODE":"0","AREACODE":"24","AREANAME":"香坊第二管理处","UNITID":"110","BEGINMONTH":"200601","CIVILBOOKCODE":"43086","BUSINESSBOOKCODE":"49984"},
    {"AREAID":"9","PARENTID":"1","POSCODE":"0","AREACODE":"26","AREANAME":"平房管理处","UNITID":"112","BEGINMONTH":"200601","CIVILBOOKCODE":"61298","BUSINESSBOOKCODE":"69997"},
    {"AREAID":"10","PARENTID":"1","POSCODE":"0","AREACODE":"11","AREANAME":"道一管理处","UNITID":"101","BEGINMONTH":"200512","CIVILBOOKCODE":"10801","BUSINESSBOOKCODE":"12991"},
    {"AREAID":"11","PARENTID":"0","POSCODE":"0","AREACODE":"31","AREANAME":"商服(三公司)管理处","UNITID":"113","BEGINMONTH":"200601","CIVILBOOKCODE":"80000","BUSINESSBOOKCODE":"89991"},
    {"AREAID":"12","PARENTID":"1","POSCODE":"0","AREACODE":"23","AREANAME":"南三管理处","UNITID":"109","BEGINMONTH":"200601","CIVILBOOKCODE":"28560","BUSINESSBOOKCODE":"29960"},
    {"AREAID":"13","PARENTID":"1","POSCODE":"0","AREACODE":"41","AREANAME":"道四管理处","UNITID":"114","BEGINMONTH":"200601","CIVILBOOKCODE":"71722","BUSINESSBOOKCODE":"79990"},
    {"AREAID":"14","PARENTID":"1","POSCODE":"0","AREACODE":"16","AREANAME":"中庆营业公司","UNITID":"106","BEGINMONTH":"200810","CIVILBOOKCODE":"37000","BUSINESSBOOKCODE":"37019"},
    {"AREAID":"15","PARENTID":"1","POSCODE":"0","AREACODE":"13","AREANAME":"道三管理处","UNITID":"103","BEGINMONTH":"200601","CIVILBOOKCODE":"16997","BUSINESSBOOKCODE":"19974"},
    {"AREAID":"18","PARENTID":"1","POSCODE":"0","AREACODE":"32","AREANAME":"商服一处","UNITID":"142","BEGINMONTH":"200705","CIVILBOOKCODE":"84000","BUSINESSBOOKCODE":"86999"},
    {"AREAID":"21","PARENTID":"1","POSCODE":"0","AREACODE":"33","AREANAME":"商服二处","UNITID":"145","BEGINMONTH":"200705","CIVILBOOKCODE":"87000","BUSINESSBOOKCODE":"89891"},
    {"AREAID":"23","PARENTID":"0","POSCODE":"0","AREACODE":"17","AREANAME":"稽查分公司","UNITID":"177","BEGINMONTH":"201006","CIVILBOOKCODE":"80012","BUSINESSBOOKCODE":"81985"}
     ],
  "total_rows": 100,
  "totalPages": 1,
  "skip": 0,
  "limit": 2147483647
}